[{"CCSDS_OMM_VERS":"2.0","COMMENT":"GENERATED VIA SPACE-TRACK.ORG API","CREATION_DATE":"2021-02-03T18:58:31","ORIGINATOR":"18 SPCS","OBJECT_NAME":"ONEWEB-0135","OBJECT_ID":"2020-100Z","CENTER_NAME":"EARTH","REF_FRAME":"TEME","TIME_SYSTEM":"UTC","MEAN_ELEMENT_THEORY":"SGP4","EPOCH":"2021-02-03T14:00:01.000224","MEAN_MOTION":"14.69338012","ECCENTRICITY":"0.00152530","INCLINATION":"87.5342","RA_OF_ASC_NODE":"23.5238","ARG_OF_PERICENTER":"87.4375","MEAN_ANOMALY":"182.9131","EPHEMERIS_TYPE":"0","CLASSIFICATION_TYPE":"U","NORAD_CAT_ID":"47281","ELEMENT_SET_NO":"999","REV_AT_EPOCH":"180","BSTAR":"-0.22082000000000","MEAN_MOTION_DOT":"-0.01206002","MEAN_MOTION_DDOT":"0.0000000000000","SEMIMAJOR_AXIS":"7041.319","PERIOD":"98.003","APOAPSIS":"673.924","PERIAPSIS":"652.444","OBJECT_TYPE":"PAYLOAD","RCS_SIZE":"MEDIUM","COUNTRY_CODE":"UK","LAUNCH_DATE":"2020-12-18","SITE":"VOSTO","DECAY_DATE":null,"FILE":"2948758","GP_ID":"170974041","TLE_LINE0":"0 ONEWEB-0135","TLE_LINE1":"1 47281U 20100Z   21034.58334491 -.01206002  00000-0 -22082+0 0  9998","TLE_LINE2":"2 47281  87.5342  23.5238 0015253  87.4375 182.9131 14.69338012  1807"},{"CCSDS_OMM_VERS":"2.0","COMMENT":"GENERATED VIA SPACE-TRACK.ORG API","CREATION_DATE":"2021-02-04T02:23:48","ORIGINATOR":"18 SPCS","OBJECT_NAME":"ONEWEB-0135","OBJECT_ID":"2020-100Z","CENTER_NAME":"EARTH","REF_FRAME":"TEME","TIME_SYSTEM":"UTC","MEAN_ELEMENT_THEORY":"SGP4","EPOCH":"2021-02-03T22:00:00.999936","MEAN_MOTION":"14.68474827","ECCENTRICITY":"0.00153210","INCLINATION":"87.5354","RA_OF_ASC_NODE":"23.4235","ARG_OF_PERICENTER":"86.4388","MEAN_ANOMALY":"145.4285","EPHEMERIS_TYPE":"0","CLASSIFICATION_TYPE":"U","NORAD_CAT_ID":"47281","ELEMENT_SET_NO":"999","REV_AT_EPOCH":"185","BSTAR":"-0.20724000000000","MEAN_MOTION_DOT":"-0.01116340","MEAN_MOTION_DDOT":"0.0000000000000","SEMIMAJOR_AXIS":"7044.078","PERIOD":"98.061","APOAPSIS":"676.735","PERIAPSIS":"655.151","OBJECT_TYPE":"PAYLOAD","RCS_SIZE":"MEDIUM","COUNTRY_CODE":"UK","LAUNCH_DATE":"2020-12-18","SITE":"VOSTO","DECAY_DATE":null,"FILE":"2949089","GP_ID":"171003326","TLE_LINE0":"0 ONEWEB-0135","TLE_LINE1":"1 47281U 20100Z   21034.91667824 -.01116340  00000-0 -20724+0 0  9990","TLE_LINE2":"2 47281  87.5354  23.4235 0015321  86.4388 145.4285 14.68474827  1858"},{"CCSDS_OMM_VERS":"2.0","COMMENT":"GENERATED VIA SPACE-TRACK.ORG API","CREATION_DATE":"2021-02-04T14:26:10","ORIGINATOR":"18 SPCS","OBJECT_NAME":"ONEWEB-0135","OBJECT_ID":"2020-100Z","CENTER_NAME":"EARTH","REF_FRAME":"TEME","TIME_SYSTEM":"UTC","MEAN_ELEMENT_THEORY":"SGP4","EPOCH":"2021-02-04T12:00:00.999648","MEAN_MOTION":"14.67064070","ECCENTRICITY":"0.00151400","INCLINATION":"87.5376","RA_OF_ASC_NODE":"23.2463","ARG_OF_PERICENTER":"83.9393","MEAN_ANOMALY":"348.1943","EPHEMERIS_TYPE":"0","CLASSIFICATION_TYPE":"U","NORAD_CAT_ID":"47281","ELEMENT_SET_NO":"999","REV_AT_EPOCH":"729","BSTAR":"-0.22629000000000","MEAN_MOTION_DOT":"-0.01175879","MEAN_MOTION_DDOT":"0.0000000000000","SEMIMAJOR_AXIS":"7048.593","PERIOD":"98.155","APOAPSIS":"681.130","PERIAPSIS":"659.787","OBJECT_TYPE":"PAYLOAD","RCS_SIZE":"MEDIUM","COUNTRY_CODE":"UK","LAUNCH_DATE":"2020-12-18","SITE":"VOSTO","DECAY_DATE":null,"FILE":"2949528","GP_ID":"171012588","TLE_LINE0":"0 ONEWEB-0135","TLE_LINE1":"1 47281U 20100Z   21035.50001157 -.01175879  00000-0 -22629+0 0  9995","TLE_LINE2":"2 47281  87.5376  23.2463 0015140  83.9393 348.1943 14.67064070  7291"},{"CCSDS_OMM_VERS":"2.0","COMMENT":"GENERATED VIA SPACE-TRACK.ORG API","CREATION_DATE":"2021-02-04T20:00:05","ORIGINATOR":"18 SPCS","OBJECT_NAME":"ONEWEB-0135","OBJECT_ID":"2020-100Z","CENTER_NAME":"EARTH","REF_FRAME":"TEME","TIME_SYSTEM":"UTC","MEAN_ELEMENT_THEORY":"SGP4","EPOCH":"2021-02-04T14:00:18.000288","MEAN_MOTION":"14.66875431","ECCENTRICITY":"0.00154080","INCLINATION":"87.5379","RA_OF_ASC_NODE":"23.2216","ARG_OF_PERICENTER":"83.6800","MEAN_ANOMALY":"69.2774","EPHEMERIS_TYPE":"0","CLASSIFICATION_TYPE":"U","NORAD_CAT_ID":"47281","ELEMENT_SET_NO":"999","REV_AT_EPOCH":"174","BSTAR":"-0.23296000000000","MEAN_MOTION_DOT":"-0.01216746","MEAN_MOTION_DDOT":"0.0000000000000","SEMIMAJOR_AXIS":"7049.198","PERIOD":"98.168","APOAPSIS":"681.924","PERIAPSIS":"660.201","OBJECT_TYPE":"PAYLOAD","RCS_SIZE":"MEDIUM","COUNTRY_CODE":"UK","LAUNCH_DATE":"2020-12-18","SITE":"VOSTO","DECAY_DATE":null,"FILE":"2949798","GP_ID":"171040099","TLE_LINE0":"0 ONEWEB-0135","TLE_LINE1":"1 47281U 20100Z   21035.58354167 -.01216746  00000-0 -23296+0 0  9995","TLE_LINE2":"2 47281  87.5379  23.2216 0015408  83.6800  69.2774 14.66875431  1744"},{"CCSDS_OMM_VERS":"2.0","COMMENT":"GENERATED VIA SPACE-TRACK.ORG API","CREATION_DATE":"2021-02-04T22:26:09","ORIGINATOR":"18 SPCS","OBJECT_NAME":"ONEWEB-0135","OBJECT_ID":"2020-100Z","CENTER_NAME":"EARTH","REF_FRAME":"TEME","TIME_SYSTEM":"UTC","MEAN_ELEMENT_THEORY":"SGP4","EPOCH":"2021-02-04T20:00:01.000224","MEAN_MOTION":"14.66536293","ECCENTRICITY":"0.00150790","INCLINATION":"87.5384","RA_OF_ASC_NODE":"23.1468","ARG_OF_PERICENTER":"83.0828","MEAN_ANOMALY":"307.8269","EPHEMERIS_TYPE":"0","CLASSIFICATION_TYPE":"U","NORAD_CAT_ID":"47281","ELEMENT_SET_NO":"999","REV_AT_EPOCH":"734","BSTAR":"-0.19022000000000","MEAN_MOTION_DOT":"-0.00988776","MEAN_MOTION_DDOT":"0.0000000000000","SEMIMAJOR_AXIS":"7050.284","PERIOD":"98.191","APOAPSIS":"682.780","PERIAPSIS":"661.518","OBJECT_TYPE":"PAYLOAD","RCS_SIZE":"MEDIUM","COUNTRY_CODE":"UK","LAUNCH_DATE":"2020-12-18","SITE":"VOSTO","DECAY_DATE":null,"FILE":"2949898","GP_ID":"171042515","TLE_LINE0":"0 ONEWEB-0135","TLE_LINE1":"1 47281U 20100Z   21035.83334491 -.00988776  00000-0 -19022+0 0  9991","TLE_LINE2":"2 47281  87.5384  23.1468 0015079  83.0828 307.8269 14.66536293  7348"},{"CCSDS_OMM_VERS":"2.0","COMMENT":"GENERATED VIA SPACE-TRACK.ORG API","CREATION_DATE":"2021-02-05T04:44:19","ORIGINATOR":"18 SPCS","OBJECT_NAME":"ONEWEB-0135","OBJECT_ID":"2020-100Z","CENTER_NAME":"EARTH","REF_FRAME":"TEME","TIME_SYSTEM":"UTC","MEAN_ELEMENT_THEORY":"SGP4","EPOCH":"2021-02-04T22:00:01.999584","MEAN_MOTION":"14.66431457","ECCENTRICITY":"0.00152350","INCLINATION":"87.5386","RA_OF_ASC_NODE":"23.1218","ARG_OF_PERICENTER":"82.5891","MEAN_ANOMALY":"28.0032","EPHEMERIS_TYPE":"0","CLASSIFICATION_TYPE":"U","NORAD_CAT_ID":"47281","ELEMENT_SET_NO":"999","REV_AT_EPOCH":"176","BSTAR":"-0.21709000000000","MEAN_MOTION_DOT":"-0.01116449","MEAN_MOTION_DDOT":"0.0000000000000","SEMIMAJOR_AXIS":"7050.620","PERIOD":"98.198","APOAPSIS":"683.227","PERIAPSIS":"661.744","OBJECT_TYPE":"PAYLOAD","RCS_SIZE":"MEDIUM","COUNTRY_CODE":"UK","LAUNCH_DATE":"2020-12-18","SITE":"VOSTO","DECAY_DATE":null,"FILE":"2950145","GP_ID":"171070066","TLE_LINE0":"0 ONEWEB-0135","TLE_LINE1":"1 47281U 20100Z   21035.91668981 -.01116449  00000-0 -21709+0 0  9990","TLE_LINE2":"2 47281  87.5386  23.1218 0015235  82.5891  28.0032 14.66431457  1767"},{"CCSDS_OMM_VERS":"2.0","COMMENT":"GENERATED VIA SPACE-TRACK.ORG API","CREATION_DATE":"2021-02-05T06:36:10","ORIGINATOR":"18 SPCS","OBJECT_NAME":"ONEWEB-0135","OBJECT_ID":"2020-100Z","CENTER_NAME":"EARTH","REF_FRAME":"TEME","TIME_SYSTEM":"UTC","MEAN_ELEMENT_THEORY":"SGP4","EPOCH":"2021-02-05T04:00:00.999936","MEAN_MOTION":"14.65845005","ECCENTRICITY":"0.00149250","INCLINATION":"87.5396","RA_OF_ASC_NODE":"23.0454","ARG_OF_PERICENTER":"82.4832","MEAN_ANOMALY":"266.7027","EPHEMERIS_TYPE":"0","CLASSIFICATION_TYPE":"U","NORAD_CAT_ID":"47281","ELEMENT_SET_NO":"999","REV_AT_EPOCH":"739","BSTAR":"-0.23534000000000","MEAN_MOTION_DOT":"-0.01188626","MEAN_MOTION_DDOT":"0.0000000000000","SEMIMAJOR_AXIS":"7052.501","PERIOD":"98.237","APOAPSIS":"684.892","PERIAPSIS":"663.840","OBJECT_TYPE":"PAYLOAD","RCS_SIZE":"MEDIUM","COUNTRY_CODE":"UK","LAUNCH_DATE":"2020-12-18","SITE":"VOSTO","DECAY_DATE":null,"FILE":"2950242","GP_ID":"171072907","TLE_LINE0":"0 ONEWEB-0135","TLE_LINE1":"1 47281U 20100Z   21036.16667824 -.01188626  00000-0 -23534+0 0  9997","TLE_LINE2":"2 47281  87.5396  23.0454 0014925  82.4832 266.7027 14.65845005  7395"},{"CCSDS_OMM_VERS":"2.0","COMMENT":"GENERATED VIA SPACE-TRACK.ORG API","CREATION_DATE":"2021-02-05T18:55:10","ORIGINATOR":"18 SPCS","OBJECT_NAME":"ONEWEB-0135","OBJECT_ID":"2020-100Z","CENTER_NAME":"EARTH","REF_FRAME":"TEME","TIME_SYSTEM":"UTC","MEAN_ELEMENT_THEORY":"SGP4","EPOCH":"2021-02-05T14:00:01.999872","MEAN_MOTION":"14.64831830","ECCENTRICITY":"0.00150950","INCLINATION":"87.5411","RA_OF_ASC_NODE":"22.9209","ARG_OF_PERICENTER":"80.5311","MEAN_ANOMALY":"305.2338","EPHEMERIS_TYPE":"0","CLASSIFICATION_TYPE":"U","NORAD_CAT_ID":"47281","ELEMENT_SET_NO":"999","REV_AT_EPOCH":"176","BSTAR":"-0.24223000000000","MEAN_MOTION_DOT":"-0.01208724","MEAN_MOTION_DDOT":"0.0000000000000","SEMIMAJOR_AXIS":"7055.752","PERIOD":"98.305","APOAPSIS":"688.268","PERIAPSIS":"666.967","OBJECT_TYPE":"PAYLOAD","RCS_SIZE":"MEDIUM","COUNTRY_CODE":"UK","LAUNCH_DATE":"2020-12-18","SITE":"VOSTO","DECAY_DATE":null,"FILE":"2950930","GP_ID":"171111018","TLE_LINE0":"0 ONEWEB-0135","TLE_LINE1":"1 47281U 20100Z   21036.58335648 -.01208724  00000-0 -24223+0 0  9997","TLE_LINE2":"2 47281  87.5411  22.9209 0015095  80.5311 305.2338 14.64831830  1768"}]